{
"type": "FeatureCollection",
"name": "deepforest_canopy_detections",
"crs": { "type": "name", "properties": { "name": "urn:ogc:def:crs:OGC:1.3:CRS84" } },
"features": [
{ "type": "Feature", "properties": { "xmin": 404245.05, "ymin": 3285103.75, "xmax": 404249.35, "ymax": 3285108.45, "label": "Tree", "score": 0.82961094379425049, "image_path": "OSBS_029.tif" }, "geometry": { "type": "Polygon", "coordinates": [ [ [ -81.989709354172831, 29.692374800510109 ], [ -81.989708938507107, 29.692332389213639 ], [ -81.989753379141618, 29.692332057169391 ], [ -81.989753794825987, 29.692374468465289 ], [ -81.989709354172831, 29.692374800510109 ] ] ] } },
{ "type": "Feature", "properties": { "xmin": 404238.05, "ymin": 3285115.25, "xmax": 404241.45, "ymax": 3285119.05, "label": "Tree", "score": 0.77829605340957642, "image_path": "OSBS_029.tif" }, "geometry": { "type": "Polygon", "coordinates": [ [ [ -81.989791938493042, 29.692469841468522 ], [ -81.989791602393495, 29.692435551485499 ], [ -81.989826741534912, 29.692435288917366 ], [ -81.989827077646396, 29.692469578900017 ], [ -81.989791938493042, 29.692469841468522 ] ] ] } },
{ "type": "Feature", "properties": { "xmin": 404233.35, "ymin": 3285118.85, "xmax": 404236.55, "ymax": 3285122.35, "label": "Tree", "score": 0.77725273370742798, "image_path": "OSBS_029.tif" }, "geometry": { "type": "Polygon", "coordinates": [ [ [ -81.989842872105228, 29.692499241200558 ], [ -81.989842562523535, 29.692467658322098 ], [ -81.98987563466666, 29.692467411186435 ], [ -81.989875944258699, 29.692498994064582 ], [ -81.989842872105228, 29.692499241200558 ] ] ] } },
{ "type": "Feature", "properties": { "xmin": 404244.55, "ymin": 3285134.75, "xmax": 404248.15, "ymax": 3285138.45, "label": "Tree", "score": 0.77086150646209717, "image_path": "OSBS_029.tif" }, "geometry": { "type": "Polygon", "coordinates": [ [ [ -81.989724409455206, 29.69264541824348 ], [ -81.989724082220377, 29.692612030628649 ], [ -81.989761288435872, 29.692611752632502 ], [ -81.989761615683008, 29.69264514024696 ], [ -81.989724409455206, 29.69264541824348 ] ] ] } },
{ "type": "Feature", "properties": { "xmin": 404237.35, "ymin": 3285119.55, "xmax": 404240.95, "ymax": 3285123.15, "label": "Tree", "score": 0.75164610147476196, "image_path": "OSBS_029.tif" }, "geometry": { "type": "Polygon", "coordinates": [ [ [ -81.989797468651901, 29.69250679994278 ], [ -81.989797150239525, 29.692474314695946 ], [ -81.989834356403477, 29.692474036680451 ], [ -81.989834674827804, 29.692506521926919 ], [ -81.989797468651901, 29.69250679994278 ] ] ] } },
{ "type": "Feature", "properties": { "xmin": 404221.85, "ymin": 3285106.45, "xmax": 404226.65, "ymax": 3285111.55, "label": "Tree", "score": 0.74160033464431763, "image_path": "OSBS_029.tif" }, "geometry": { "type": "Polygon", "coordinates": [ [ [ -81.989944233700896, 29.692401020860164 ], [ -81.989943782551904, 29.692355000095077 ], [ -81.989993390709586, 29.692354629351858 ], [ -81.989993841881173, 29.692400650116259 ], [ -81.989944233700896, 29.692401020860164 ] ] ] } },
{ "type": "Feature", "properties": { "xmin": 404241.45, "ymin": 3285102.85, "xmax": 404244.95, "ymax": 3285105.65, "label": "Tree", "score": 0.70737934112548828, "image_path": "OSBS_029.tif" }, "geometry": { "type": "Polygon", "coordinates": [ [ [ -81.989754580687432, 29.692349194439235 ], [ -81.989754333045624, 29.692323928135227 ], [ -81.989790505651627, 29.69232365785545 ], [ -81.989790753302486, 29.692348924159177 ], [ -81.989754580687432, 29.692349194439235 ] ] ] } },
{ "type": "Feature", "properties": { "xmin": 404217.85, "ymin": 3285109.25, "xmax": 404221.75, "ymax": 3285113.25, "label": "Tree", "score": 0.68873435258865356, "image_path": "OSBS_029.tif" }, "geometry": { "type": "Polygon", "coordinates": [ [ [ -81.989995025775826, 29.692415982646942 ], [ -81.989994671915042, 29.692379887929899 ], [ -81.990034978552529, 29.692379586686734 ], [ -81.990035332427738, 29.69241568140335 ], [ -81.989995025775826, 29.692415982646942 ] ] ] } },
{ "type": "Feature", "properties": { "xmin": 404229.65, "ymin": 3285103.05, "xmax": 404232.55, "ymax": 3285105.75, "label": "Tree", "score": 0.68746864795684814, "image_path": "OSBS_029.tif" }, "geometry": { "type": "Polygon", "coordinates": [ [ [ -81.989882743938324, 29.692349139199099 ], [ -81.989882505109946, 29.692324775264041 ], [ -81.989912476696901, 29.692324551289634 ], [ -81.989912715532512, 29.692348915224475 ], [ -81.989882743938324, 29.692349139199099 ] ] ] } },
{ "type": "Feature", "properties": { "xmin": 404215.85, "ymin": 3285137.85, "xmax": 404220.85, "ymax": 3285142.85, "label": "Tree", "score": 0.67332750558853149, "image_path": "OSBS_029.tif" }, "geometry": { "type": "Polygon", "coordinates": [ [ [ -81.990006945925444, 29.692683014029441 ], [ -81.990006503589441, 29.692637895635087 ], [ -81.990058178897442, 29.692637509416038 ], [ -81.990058621256509, 29.692682627809692 ], [ -81.990006945925444, 29.692683014029441 ] ] ] } },
{ "type": "Feature", "properties": { "xmin": 404219.15, "ymin": 3285112.95, "xmax": 404223.25, "ymax": 3285116.45, "label": "Tree", "score": 0.67119354009628296, "image_path": "OSBS_029.tif" }, "geometry": { "type": "Polygon", "coordinates": [ [ [ -81.989979806301918, 29.692444974280225 ], [ -81.989979496678089, 29.692413391402816 ], [ -81.990021870336861, 29.692413074715489 ], [ -81.990022179973948, 29.692444657592489 ], [ -81.989979806301918, 29.692444974280225 ] ] ] } },
{ "type": "Feature", "properties": { "xmin": 404239.65, "ymin": 3285139.55, "xmax": 404243.05, "ymax": 3285142.85, "label": "Tree", "score": 0.67116409540176392, "image_path": "OSBS_029.tif" }, "geometry": { "type": "Polygon", "coordinates": [ [ [ -81.989777507443335, 29.692684728601758 ], [ -81.989777215569092, 29.692654950459453 ], [ -81.989812354787006, 29.692654687893377 ], [ -81.989812646671609, 29.692684466035359 ], [ -81.989777507443335, 29.692684728601758 ] ] ] } },
{ "type": "Feature", "properties": { "xmin": 404249.95, "ymin": 3285113.25, "xmax": 404251.85, "ymax": 3285116.45, "label": "Tree", "score": 0.66995561122894287, "image_path": "OSBS_029.tif" }, "geometry": { "type": "Polygon", "coordinates": [ [ [ -81.989684224083121, 29.692447182993327 ], [ -81.98968394108293, 29.692418307217121 ], [ -81.989703577659313, 29.692418160505056 ], [ -81.989703860665102, 29.692447036281081 ], [ -81.989684224083121, 29.692447182993327 ] ] ] } },
{ "type": "Feature", "properties": { "xmin": 404243.15, "ymin": 3285138.45, "xmax": 404246.25, "ymax": 3285141.85, "label": "Tree", "score": 0.66883009672164917, "image_path": "OSBS_029.tif" }, "geometry": { "type": "Polygon", "coordinates": [ [ [ -81.989744346784235, 29.692675952035003 ], [ -81.989744046075501, 29.692645271524391 ], [ -81.989776084771464, 29.692645032134376 ], [ -81.989776385489918, 29.692675712644682 ], [ -81.989744346784235, 29.692675952035003 ] ] ] } },
{ "type": "Feature", "properties": { "xmin": 404212.35, "ymin": 3285117.65, "xmax": 404215.15, "ymax": 3285120.45, "label": "Tree", "score": 0.66416609287261963, "image_path": "OSBS_029.tif" }, "geometry": { "type": "Polygon", "coordinates": [ [ [ -81.990063874027456, 29.692480443331743 ], [ -81.990063626306949, 29.692455177030606 ], [ -81.990092564426703, 29.692454960739148 ], [ -81.99009281215443, 29.692480227040061 ], [ -81.990063874027456, 29.692480443331743 ] ] ] } },
{ "type": "Feature", "properties": { "xmin": 404243.75, "ymin": 3285121.95, "xmax": 404246.45, "ymax": 3285124.85, "label": "Tree", "score": 0.66021323204040527, "image_path": "OSBS_029.tif" }, "geometry": { "type": "Polygon", "coordinates": [ [ [ -81.989740776235067, 29.692522564924719 ], [ -81.989740519750697, 29.692496396253286 ], [ -81.989768424380301, 29.692496187754429 ], [ -81.989768680871904, 29.692522356425638 ], [ -81.989740776235067, 29.692522564924719 ] ] ] } },
{ "type": "Feature", "properties": { "xmin": 404217.15, "ymin": 3285132.35, "xmax": 404220.15, "ymax": 3285135.75, "label": "Tree", "score": 0.65603470802307129, "image_path": "OSBS_029.tif" }, "geometry": { "type": "Polygon", "coordinates": [ [ [ -81.990013552350447, 29.692618891839942 ], [ -81.990013251560612, 29.692588211331582 ], [ -81.990044256730229, 29.692587979601349 ], [ -81.990044557529458, 29.692618660109417 ], [ -81.990013552350447, 29.692618891839942 ] ] ] } },
{ "type": "Feature", "properties": { "xmin": 404248.45, "ymin": 3285128.75, "xmax": 404250.45, "ymax": 3285130.95, "label": "Tree", "score": 0.6556658148765564, "image_path": "OSBS_029.tif" }, "geometry": { "type": "Polygon", "coordinates": [ [ [ -81.989699975512025, 29.692577918248588 ], [ -81.98969978094523, 29.692558066152941 ], [ -81.989720451054126, 29.69255791171598 ], [ -81.989720645624985, 29.692577763811496 ], [ -81.989699975512025, 29.692577918248588 ] ] ] } },
{ "type": "Feature", "properties": { "xmin": 404230.85, "ymin": 3285112.55, "xmax": 404234.95, "ymax": 3285117.25, "label": "Tree", "score": 0.64957815408706665, "image_path": "OSBS_029.tif" }, "geometry": { "type": "Polygon", "coordinates": [ [ [ -81.989858957069899, 29.692453096868032 ], [ -81.989858541340041, 29.692410685573972 ], [ -81.989900914999239, 29.692410368925348 ], [ -81.989901330746875, 29.692452780218865 ], [ -81.989858957069899, 29.692453096868032 ] ] ] } },
{ "type": "Feature", "properties": { "xmin": 404231.35, "ymin": 3285105.65, "xmax": 404234.55, "ymax": 3285108.85, "label": "Tree", "score": 0.64453989267349243, "image_path": "OSBS_029.tif" }, "geometry": { "type": "Polygon", "coordinates": [ [ [ -81.989862348078162, 29.692377267067393 ], [ -81.98986206502785, 29.692348391292434 ], [ -81.989895137131725, 29.69234814415281 ], [ -81.989895420191488, 29.692377019927466 ], [ -81.989862348078162, 29.692377267067393 ] ] ] } },
{ "type": "Feature", "properties": { "xmin": 404240.85, "ymin": 3285129.65, "xmax": 404244.15, "ymax": 3285132.75, "label": "Tree", "score": 0.6414494514465332, "image_path": "OSBS_029.tif" }, "geometry": { "type": "Polygon", "coordinates": [ [ [ -81.989765245568933, 29.692593674384177 ], [ -81.989764971388425, 29.69256570097728 ], [ -81.989799077069932, 29.69256544613771 ], [ -81.989799351259876, 29.69259341954432 ], [ -81.989765245568933, 29.692593674384177 ] ] ] } },
{ "type": "Feature", "properties": { "xmin": 404240.55, "ymin": 3285126.35, "xmax": 404243.25, "ymax": 3285129.05, "label": "Tree", "score": 0.62906849384307861, "image_path": "OSBS_029.tif" }, "geometry": { "type": "Polygon", "coordinates": [ [ [ -81.989774219870327, 29.692560217268664 ], [ -81.989773981066094, 29.692535853333588 ], [ -81.989801885706299, 29.692535644827434 ], [ -81.989802124517269, 29.692560008762314 ], [ -81.989774219870327, 29.692560217268664 ] ] ] } },
{ "type": "Feature", "properties": { "xmin": 404231.55, "ymin": 3285128.95, "xmax": 404235.95, "ymax": 3285132.75, "label": "Tree", "score": 0.617684006690979, "image_path": "OSBS_029.tif" }, "geometry": { "type": "Polygon", "coordinates": [ [ [ -81.989849993042597, 29.692593041129548 ], [ -81.989849656921649, 29.692558751147768 ], [ -81.989895131159258, 29.692558411330729 ], [ -81.989895467295639, 29.692592701312044 ], [ -81.989849993042597, 29.692593041129548 ] ] ] } },
{ "type": "Feature", "properties": { "xmin": 404212.75, "ymin": 3285132.85, "xmax": 404216.15, "ymax": 3285136.65, "label": "Tree", "score": 0.61664402484893799, "image_path": "OSBS_029.tif" }, "geometry": { "type": "Polygon", "coordinates": [ [ [ -81.990054972213272, 29.692626704175215 ], [ -81.990054636022293, 29.692592414195747 ], [ -81.990089775215495, 29.692592151556578 ], [ -81.990090111418425, 29.692626441535694 ], [ -81.990054972213272, 29.692626704175215 ] ] ] } },
{ "type": "Feature", "properties": { "xmin": 404237.05, "ymin": 3285134.95, "xmax": 404239.55, "ymax": 3285137.75, "label": "Tree", "score": 0.6067315936088562, "image_path": "OSBS_029.tif" }, "geometry": { "type": "Polygon", "coordinates": [ [ [ -81.989813229083651, 29.692638437547753 ], [ -81.989812981424265, 29.692613171245295 ], [ -81.989838819073569, 29.692612978176179 ], [ -81.989839066739407, 29.692638244478442 ], [ -81.989813229083651, 29.692638437547753 ] ] ] } },
{ "type": "Feature", "properties": { "xmin": 404229.75, "ymin": 3285139.65, "xmax": 404234.35, "ymax": 3285142.85, "label": "Tree", "score": 0.5986945629119873, "image_path": "OSBS_029.tif" }, "geometry": { "type": "Polygon", "coordinates": [ [ [ -81.989867422526515, 29.692684056722115 ], [ -81.989867139471258, 29.692655180948538 ], [ -81.989914680764784, 29.692654825677582 ], [ -81.989914963833641, 29.69268370145074 ], [ -81.989867422526515, 29.692684056722115 ] ] ] } },
{ "type": "Feature", "properties": { "xmin": 404213.55, "ymin": 3285103.35, "xmax": 404217.45, "ymax": 3285107.85, "label": "Tree", "score": 0.59653216600418091, "image_path": "OSBS_029.tif" }, "geometry": { "type": "Polygon", "coordinates": [ [ [ -81.990038988709912, 29.692366922638467 ], [ -81.990038590599681, 29.692326316082013 ], [ -81.990078897215241, 29.692326014825987 ], [ -81.990079295341687, 29.69236662138195 ], [ -81.990038988709912, 29.692366922638467 ] ] ] } },
{ "type": "Feature", "properties": { "xmin": 404249.25, "ymin": 3285119.35, "xmax": 404251.65, "ymax": 3285122.05, "label": "Tree", "score": 0.59124922752380371, "image_path": "OSBS_029.tif" }, "geometry": { "type": "Polygon", "coordinates": [ [ [ -81.989686786344095, 29.692497700158082 ], [ -81.989686547561561, 29.692473336222122 ], [ -81.989711351671517, 29.692473150900341 ], [ -81.989711590460033, 29.692497514836113 ], [ -81.989686786344095, 29.692497700158082 ] ] ] } },
{ "type": "Feature", "properties": { "xmin": 404235.25, "ymin": 3285116.75, "xmax": 404237.05, "ymax": 3285118.75, "label": "Tree", "score": 0.58398795127868652, "image_path": "OSBS_029.tif" }, "geometry": { "type": "Polygon", "coordinates": [ [ [ -81.989837386155997, 29.692466794568329 ], [ -81.989837209253324, 29.69244874720912 ], [ -81.989855812330433, 29.692448608197157 ], [ -81.989855989236418, 29.692466655556277 ], [ -81.989837386155997, 29.692466794568329 ] ] ] } },
{ "type": "Feature", "properties": { "xmin": 404239.35, "ymin": 3285106.15, "xmax": 404242.45, "ymax": 3285109.55, "label": "Tree", "score": 0.57840782403945923, "image_path": "OSBS_029.tif" }, "geometry": { "type": "Polygon", "coordinates": [ [ [ -81.989780763208842, 29.692384193734632 ], [ -81.98978046249259, 29.692353513223019 ], [ -81.989812501095642, 29.692353273826321 ], [ -81.989812801821614, 29.69238395433764 ], [ -81.989780763208842, 29.692384193734632 ] ] ] } },
{ "type": "Feature", "properties": { "xmin": 404221.95, "ymin": 3285136.45, "xmax": 404224.65, "ymax": 3285140.15, "label": "Tree", "score": 0.56212800741195679, "image_path": "OSBS_029.tif" }, "geometry": { "type": "Polygon", "coordinates": [ [ [ -81.989967433821064, 29.692658943609768 ], [ -81.989967106505702, 29.692625555997449 ], [ -81.989995011169071, 29.692625347450043 ], [ -81.989995338493642, 29.692658735062075 ], [ -81.989967433821064, 29.692658943609768 ] ] ] } },
{ "type": "Feature", "properties": { "xmin": 404234.85, "ymin": 3285102.95, "xmax": 404236.95, "ymax": 3285103.95, "label": "Tree", "score": 0.55400276184082031, "image_path": "OSBS_029.tif" }, "geometry": { "type": "Polygon", "coordinates": [ [ [ -81.989837110583139, 29.692333236386137 ], [ -81.989837022132278, 29.692324212706346 ], [ -81.989858725695456, 29.692324050526114 ], [ -81.989858814148263, 29.692333074205845 ], [ -81.989837110583139, 29.692333236386137 ] ] ] } },
{ "type": "Feature", "properties": { "xmin": 404223.65, "ymin": 3285113.05, "xmax": 404225.85, "ymax": 3285115.45, "label": "Tree", "score": 0.55339902639389038, "image_path": "OSBS_029.tif" }, "geometry": { "type": "Polygon", "coordinates": [ [ [ -81.989952846730887, 29.69243615142026 ], [ -81.98995263442319, 29.692414494589841 ], [ -81.989975371508905, 29.692414324666348 ], [ -81.989975583821462, 29.692435981496608 ], [ -81.989952846730887, 29.69243615142026 ] ] ] } },
{ "type": "Feature", "properties": { "xmin": 404228.55, "ymin": 3285121.95, "xmax": 404231.65, "ymax": 3285125.25, "label": "Tree", "score": 0.54715806245803833, "image_path": "OSBS_029.tif" }, "geometry": { "type": "Polygon", "coordinates": [ [ [ -81.989893770364091, 29.692525031440454 ], [ -81.989893478457461, 29.692495253298475 ], [ -81.989925517104368, 29.692495013873419 ], [ -81.989925809020448, 29.692524792015114 ], [ -81.989893770364091, 29.692525031440454 ] ] ] } },
{ "type": "Feature", "properties": { "xmin": 404212.15, "ymin": 3285122.35, "xmax": 404216.15, "ymax": 3285127.35, "label": "Tree", "score": 0.54309409856796265, "image_path": "OSBS_029.tif" }, "geometry": { "type": "Polygon", "coordinates": [ [ [ -81.990054149431089, 29.692542783961972 ], [ -81.990053707076498, 29.692497665567284 ], [ -81.990095047264987, 29.692497356580255 ], [ -81.990095489638037, 29.69254247497437 ], [ -81.990054149431089, 29.692542783961972 ] ] ] } },
{ "type": "Feature", "properties": { "xmin": 404235.65, "ymin": 3285127.95, "xmax": 404237.15, "ymax": 3285129.45, "label": "Tree", "score": 0.53893709182739258, "image_path": "OSBS_029.tif" }, "geometry": { "type": "Polygon", "coordinates": [ [ [ -81.989837299082581, 29.692563355662163 ], [ -81.989837166405053, 29.692549820142951 ], [ -81.989852668984824, 29.692549704299477 ], [ -81.989852801664426, 29.692563239818636 ], [ -81.989837299082581, 29.692563355662163 ] ] ] } },
{ "type": "Feature", "properties": { "xmin": 404244.55, "ymin": 3285127.75, "xmax": 404247.65, "ymax": 3285130.95, "label": "Tree", "score": 0.5387534499168396, "image_path": "OSBS_029.tif" }, "geometry": { "type": "Polygon", "coordinates": [ [ [ -81.98972891367012, 29.692577702035759 ], [ -81.989728630655662, 29.692548826260523 ], [ -81.989760669321186, 29.692548586874935 ], [ -81.989760952344795, 29.692577462649894 ], [ -81.98972891367012, 29.692577702035759 ] ] ] } },
{ "type": "Feature", "properties": { "xmin": 404250.85, "ymin": 3285103.05, "xmax": 404251.95, "ymax": 3285105.15, "label": "Tree", "score": 0.52269959449768066, "image_path": "OSBS_029.tif" }, "geometry": { "type": "Polygon", "coordinates": [ [ [ -81.989682191237293, 29.692345223129621 ], [ -81.989682005519526, 29.692326273401196 ], [ -81.989693374053402, 29.69232618846339 ], [ -81.989693559773301, 29.692345138191751 ], [ -81.989682191237293, 29.692345223129621 ] ] ] } },
{ "type": "Feature", "properties": { "xmin": 404214.85, "ymin": 3285126.25, "xmax": 404217.25, "ymax": 3285128.65, "label": "Tree", "score": 0.52191746234893799, "image_path": "OSBS_029.tif" }, "geometry": { "type": "Polygon", "coordinates": [ [ [ -81.990042895885097, 29.692554599713898 ], [ -81.990042683557078, 29.692532942884466 ], [ -81.990067487678999, 29.692532757495652 ], [ -81.990067700012318, 29.692554414324924 ], [ -81.990042895885097, 29.692554599713898 ] ] ] } },
{ "type": "Feature", "properties": { "xmin": 404220.65, "ymin": 3285104.15, "xmax": 404222.75, "ymax": 3285106.55, "label": "Tree", "score": 0.49436354637145996, "image_path": "OSBS_029.tif" }, "geometry": { "type": "Polygon", "coordinates": [ [ [ -81.989984098026497, 29.692355601235558 ], [ -81.989983885712817, 29.692333944405096 ], [ -81.990005589277118, 29.692333782200752 ], [ -81.990005801595458, 29.692355439031086 ], [ -81.989984098026497, 29.692355601235558 ] ] ] } },
{ "type": "Feature", "properties": { "xmin": 404241.15, "ymin": 3285102.95, "xmax": 404241.85, "ymax": 3285104.95, "label": "Tree", "score": 0.49354693293571472, "image_path": "OSBS_029.tif" }, "geometry": { "type": "Polygon", "coordinates": [ [ [ -81.989786557376874, 29.692342638472894 ], [ -81.989786380484162, 29.69232459111306 ], [ -81.989793615005382, 29.692324537056138 ], [ -81.989793791899373, 29.69234258441594 ], [ -81.989786557376874, 29.692342638472894 ] ] ] } },
{ "type": "Feature", "properties": { "xmin": 404217.75, "ymin": 3285131.75, "xmax": 404220.45, "ymax": 3285132.85, "label": "Tree", "score": 0.49226048588752747, "image_path": "OSBS_029.tif" }, "geometry": { "type": "Polygon", "coordinates": [ [ [ -81.990010195277264, 29.692592746343692 ], [ -81.990010097963307, 29.692582820296831 ], [ -81.990038002614497, 29.69258261174064 ], [ -81.990038099931212, 29.692592537787419 ], [ -81.990010195277264, 29.692592746343692 ] ] ] } },
{ "type": "Feature", "properties": { "xmin": 404235.65, "ymin": 3285108.35, "xmax": 404237.75, "ymax": 3285110.45, "label": "Tree", "score": 0.48673263192176819, "image_path": "OSBS_029.tif" }, "geometry": { "type": "Polygon", "coordinates": [ [ [ -81.989829417484998, 29.69239195208662 ], [ -81.989829231739265, 29.692373002359176 ], [ -81.989850935312987, 29.692372840179988 ], [ -81.989851121062799, 29.692391789907305 ], [ -81.989829417484998, 29.69239195208662 ] ] ] } },
{ "type": "Feature", "properties": { "xmin": 404251.15, "ymin": 3285127.35, "xmax": 404251.85, "ymax": 3285129.35, "label": "Tree", "score": 0.47586354613304138, "image_path": "OSBS_029.tif" }, "geometry": { "type": "Polygon", "coordinates": [ [ [ -81.989685364931788, 29.692563588464846 ], [ -81.989685188055574, 29.692545541105048 ], [ -81.989692422592853, 29.692545487053298 ], [ -81.989692599470345, 29.692563534413054 ], [ -81.989685364931788, 29.692563588464846 ] ] ] } },
{ "type": "Feature", "properties": { "xmin": 404245.25, "ymin": 3285131.65, "xmax": 404247.35, "ymax": 3285133.95, "label": "Tree", "score": 0.47133243083953857, "image_path": "OSBS_029.tif" }, "geometry": { "type": "Polygon", "coordinates": [ [ [ -81.9897322795143, 29.692604749908863 ], [ -81.989732076096701, 29.692583995445528 ], [ -81.989753779716409, 29.692583833281219 ], [ -81.989753983138456, 29.692604587744409 ], [ -81.9897322795143, 29.692604749908863 ] ] ] } },
{ "type": "Feature", "properties": { "xmin": 404217.85, "ymin": 3285121.95, "xmax": 404220.45, "ymax": 3285124.45, "label": "Tree", "score": 0.46987149119377136, "image_path": "OSBS_029.tif" }, "geometry": { "type": "Polygon", "coordinates": [ [ [ -81.990009452153629, 29.69251694744003 ], [ -81.990009230986431, 29.692494388242338 ], [ -81.990036102108505, 29.69249418741127 ], [ -81.990036323281714, 29.692516746608778 ], [ -81.990009452153629, 29.69251694744003 ] ] ] } },
{ "type": "Feature", "properties": { "xmin": 404250.35, "ymin": 3285107.85, "xmax": 404251.95, "ymax": 3285110.95, "label": "Tree", "score": 0.45915383100509644, "image_path": "OSBS_029.tif" }, "geometry": { "type": "Polygon", "coordinates": [ [ [ -81.989682704173006, 29.692397560474493 ], [ -81.989682430017538, 29.692369587066093 ], [ -81.989698966073902, 29.692369463519647 ], [ -81.989699240233932, 29.692397436927916 ], [ -81.989682704173006, 29.692397560474493 ] ] ] } },
{ "type": "Feature", "properties": { "xmin": 404228.05, "ymin": 3285113.45, "xmax": 404229.55, "ymax": 3285115.05, "label": "Tree", "score": 0.453696608543396, "image_path": "OSBS_029.tif" }, "geometry": { "type": "Polygon", "coordinates": [ [ [ -81.989914571694825, 29.692432827720356 ], [ -81.989914430161832, 29.692418389833257 ], [ -81.989929932721068, 29.692418273981211 ], [ -81.989930074256279, 29.692432711868239 ], [ -81.989914571694825, 29.692432827720356 ] ] ] } },
{ "type": "Feature", "properties": { "xmin": 404223.85, "ymin": 3285133.35, "xmax": 404226.25, "ymax": 3285135.85, "label": "Tree", "score": 0.42697626352310181, "image_path": "OSBS_029.tif" }, "geometry": { "type": "Polygon", "coordinates": [ [ [ -81.989950517331522, 29.692620265370881 ], [ -81.989950296176573, 29.692597706173157 ], [ -81.989975100315078, 29.692597520801282 ], [ -81.989975321475569, 29.692620079998832 ], [ -81.989950517331522, 29.692620265370881 ] ] ] } },
{ "type": "Feature", "properties": { "xmin": 404235.85, "ymin": 3285110.25, "xmax": 404238.65, "ymax": 3285113.05, "label": "Tree", "score": 0.42543774843215942, "image_path": "OSBS_029.tif" }, "geometry": { "type": "Polygon", "coordinates": [ [ [ -81.989820345920634, 29.69241548315825 ], [ -81.989820098261703, 29.692390216855017 ], [ -81.989849036364959, 29.69239000061717 ], [ -81.989849284031123, 29.692415266920193 ], [ -81.989820345920634, 29.69241548315825 ] ] ] } },
{ "type": "Feature", "properties": { "xmin": 404211.95, "ymin": 3285120.55, "xmax": 404212.65, "ymax": 3285122.55, "label": "Tree", "score": 0.42474961280822754, "image_path": "OSBS_029.tif" }, "geometry": { "type": "Polygon", "coordinates": [ [ [ -81.990089897436278, 29.692499199940119 ], [ -81.990089720488243, 29.692481152582364 ], [ -81.990096955020007, 29.69248109850863 ], [ -81.990097131969335, 29.692499145866339 ], [ -81.990089897436278, 29.692499199940119 ] ] ] } },
{ "type": "Feature", "properties": { "xmin": 404222.95, "ymin": 3285118.85, "xmax": 404226.75, "ymax": 3285123.75, "label": "Tree", "score": 0.42238318920135498, "image_path": "OSBS_029.tif" }, "geometry": { "type": "Polygon", "coordinates": [ [ [ -81.98994427941939, 29.692511117471525 ], [ -81.989943845960553, 29.692466901443073 ], [ -81.989983119128965, 29.692466607938528 ], [ -81.989983552604997, 29.692510823966465 ], [ -81.98994427941939, 29.692511117471525 ] ] ] } },
{ "type": "Feature", "properties": { "xmin": 404221.95, "ymin": 3285128.45, "xmax": 404223.75, "ymax": 3285130.55, "label": "Tree", "score": 0.42065349221229553, "image_path": "OSBS_029.tif" }, "geometry": { "type": "Polygon", "coordinates": [ [ [ -81.98997588612113, 29.692572246775971 ], [ -81.989975700346548, 29.692553297049887 ], [ -81.989994303442117, 29.69255315801804 ], [ -81.989994489220209, 29.692572107744017 ], [ -81.98997588612113, 29.692572246775971 ] ] ] } },
{ "type": "Feature", "properties": { "xmin": 404220.45, "ymin": 3285125.45, "xmax": 404223.35, "ymax": 3285128.45, "label": "Tree", "score": 0.41881465911865234, "image_path": "OSBS_029.tif" }, "geometry": { "type": "Polygon", "coordinates": [ [ [ -81.989979834367787, 29.69255326615415 ], [ -81.989979568974732, 29.692526195116827 ], [ -81.990009540620576, 29.692525971119082 ], [ -81.990009806021675, 29.692553042156163 ], [ -81.989979834367787, 29.69255326615415 ] ] ] } },
{ "type": "Feature", "properties": { "xmin": 404249.25, "ymin": 3285140.75, "xmax": 404251.75, "ymax": 3285142.85, "label": "Tree", "score": 0.41814711689949036, "image_path": "OSBS_029.tif" }, "geometry": { "type": "Polygon", "coordinates": [ [ [ -81.9896875923571, 29.692685400420395 ], [ -81.989687406635753, 29.692666450692982 ], [ -81.989713244299679, 29.692666257648039 ], [ -81.989713430025859, 29.692685207375312 ], [ -81.9896875923571, 29.692685400420395 ] ] ] } },
{ "type": "Feature", "properties": { "xmin": 404217.65, "ymin": 3285119.45, "xmax": 404220.65, "ymax": 3285122.65, "label": "Tree", "score": 0.41715964674949646, "image_path": "OSBS_029.tif" }, "geometry": { "type": "Polygon", "coordinates": [ [ [ -81.990007225903696, 29.692500720266025 ], [ -81.990006942810538, 29.692471844492882 ], [ -81.990037947944472, 29.692471612764951 ], [ -81.990038231046483, 29.692500488537814 ], [ -81.990007225903696, 29.692500720266025 ] ] ] } },
{ "type": "Feature", "properties": { "xmin": 404239.55, "ymin": 3285125.55, "xmax": 404240.75, "ymax": 3285126.85, "label": "Tree", "score": 0.41671213507652283, "image_path": "OSBS_029.tif" }, "geometry": { "type": "Polygon", "coordinates": [ [ [ -81.989799862920066, 29.692540172112334 ], [ -81.989799747937326, 29.692528441328843 ], [ -81.98981214999867, 29.692528348657781 ], [ -81.989812264982845, 29.692540079441233 ], [ -81.989799862920066, 29.692540172112334 ] ] ] } },
{ "type": "Feature", "properties": { "xmin": 404211.95, "ymin": 3285114.15, "xmax": 404214.05, "ymax": 3285116.85, "label": "Tree", "score": 0.41631102561950684, "image_path": "OSBS_029.tif" }, "geometry": { "type": "Polygon", "coordinates": [ [ [ -81.990074924075998, 29.692447873116532 ], [ -81.990074685200312, 29.692423509183261 ], [ -81.990096388783257, 29.692423346963597 ], [ -81.990096627664187, 29.692447710896715 ], [ -81.990074924075998, 29.692447873116532 ] ] ] } },
{ "type": "Feature", "properties": { "xmin": 404227.05, "ymin": 3285102.85, "xmax": 404229.25, "ymax": 3285104.05, "label": "Tree", "score": 0.41217991709709167, "image_path": "OSBS_029.tif" }, "geometry": { "type": "Polygon", "coordinates": [ [ [ -81.989916699166827, 29.692333544075652 ], [ -81.989916593017284, 29.692322715660172 ], [ -81.989939330082592, 29.692322545743338 ], [ -81.989939436234579, 29.692333374158739 ], [ -81.989916699166827, 29.692333544075652 ] ] ] } },
{ "type": "Feature", "properties": { "xmin": 404221.95, "ymin": 3285120.25, "xmax": 404223.65, "ymax": 3285122.85, "label": "Tree", "score": 0.40075099468231201, "image_path": "OSBS_029.tif" }, "geometry": { "type": "Polygon", "coordinates": [ [ [ -81.989976238453323, 29.69250275672281 ], [ -81.989976008447286, 29.692479295156929 ], [ -81.989993578024681, 29.692479163849388 ], [ -81.989993808034797, 29.692502625415152 ], [ -81.989976238453323, 29.69250275672281 ] ] ] } },
{ "type": "Feature", "properties": { "xmin": 404225.75, "ymin": 3285126.45, "xmax": 404231.25, "ymax": 3285132.15, "label": "Tree", "score": 0.39510300755500793, "image_path": "OSBS_029.tif" }, "geometry": { "type": "Polygon", "coordinates": [ [ [ -81.989898514738499, 29.692587263934538 ], [ -81.989898010532698, 29.692535828962505 ], [ -81.989954853315865, 29.692535404168314 ], [ -81.989955357550599, 29.692586839139455 ], [ -81.989898514738499, 29.692587263934538 ] ] ] } },
{ "type": "Feature", "properties": { "xmin": 404248.95, "ymin": 3285137.25, "xmax": 404251.75, "ymax": 3285140.25, "label": "Tree", "score": 0.37778893113136292, "image_path": "OSBS_029.tif" }, "geometry": { "type": "Polygon", "coordinates": [ [ [ -81.989687362416419, 29.692661938853107 ], [ -81.989687097100585, 29.69263486781383 ], [ -81.989716035275109, 29.692634651603431 ], [ -81.989716300598701, 29.69266172264248 ], [ -81.989687362416419, 29.692661938853107 ] ] ] } },
{ "type": "Feature", "properties": { "xmin": 404228.15, "ymin": 3285119.95, "xmax": 404230.25, "ymax": 3285121.95, "label": "Tree", "score": 0.37774857878684998, "image_path": "OSBS_029.tif" }, "geometry": { "type": "Polygon", "coordinates": [ [ [ -81.989907947523861, 29.692495145171996 ], [ -81.989907770608369, 29.692477097813235 ], [ -81.989929474203933, 29.692476935620657 ], [ -81.989929651123305, 29.692494982979305 ], [ -81.989907947523861, 29.692495145171996 ] ] ] } },
{ "type": "Feature", "properties": { "xmin": 404224.85, "ymin": 3285122.95, "xmax": 404227.75, "ymax": 3285125.95, "label": "Tree", "score": 0.37286704778671265, "image_path": "OSBS_029.tif" }, "geometry": { "type": "Polygon", "coordinates": [ [ [ -81.989934138982903, 29.692531046802127 ], [ -81.98993387360234, 29.692503975764332 ], [ -81.989963845242002, 29.692503751777089 ], [ -81.989964110630623, 29.692530822814639 ], [ -81.989934138982903, 29.692531046802127 ] ] ] } },
{ "type": "Feature", "properties": { "xmin": 404224.85, "ymin": 3285118.05, "xmax": 404227.35, "ymax": 3285120.55, "label": "Tree", "score": 0.35818719863891602, "image_path": "OSBS_029.tif" }, "geometry": { "type": "Polygon", "coordinates": [ [ [ -81.989937795316536, 29.69248228803966 ], [ -81.989937574165651, 29.692459728841364 ], [ -81.989963411774724, 29.692459535748853 ], [ -81.989963632931378, 29.692482094946971 ], [ -81.989937795316536, 29.69248228803966 ] ] ] } },
{ "type": "Feature", "properties": { "xmin": 404227.35, "ymin": 3285121.55, "xmax": 404228.95, "ymax": 3285123.15, "label": "Tree", "score": 0.35355746746063232, "image_path": "OSBS_029.tif" }, "geometry": { "type": "Polygon", "coordinates": [ [ [ -81.989921489236252, 29.692505873182604 ], [ -81.989921347701852, 29.692491435295683 ], [ -81.98993788377696, 29.692491311718964 ], [ -81.989938025313734, 29.692505749605811 ], [ -81.989921489236252, 29.692505873182604 ] ] ] } },
{ "type": "Feature", "properties": { "xmin": 404220.65, "ymin": 3285138.95, "xmax": 404223.25, "ymax": 3285142.15, "label": "Tree", "score": 0.35217919945716858, "image_path": "OSBS_029.tif" }, "geometry": { "type": "Polygon", "coordinates": [ [ [ -81.989982079840615, 29.692676882832522 ], [ -81.989981796752645, 29.692648007059933 ], [ -81.990008667915816, 29.692647806233481 ], [ -81.990008951011475, 29.692676682005846 ], [ -81.989982079840615, 29.692676882832522 ] ] ] } },
{ "type": "Feature", "properties": { "xmin": 404214.95, "ymin": 3285122.95, "xmax": 404217.15, "ymax": 3285125.65, "label": "Tree", "score": 0.35005298256874084, "image_path": "OSBS_029.tif" }, "geometry": { "type": "Polygon", "coordinates": [ [ [ -81.990043663980146, 29.692527520952652 ], [ -81.990043425111224, 29.692503157019434 ], [ -81.99006616221628, 29.692502987079891 ], [ -81.990066401090687, 29.692527351012952 ], [ -81.990043663980146, 29.692527520952652 ] ] ] } },
{ "type": "Feature", "properties": { "xmin": 404224.85, "ymin": 3285126.95, "xmax": 404227.05, "ymax": 3285129.25, "label": "Tree", "score": 0.34659415483474731, "image_path": "OSBS_029.tif" }, "geometry": { "type": "Polygon", "coordinates": [ [ [ -81.989941665439787, 29.692560770878199 ], [ -81.989941461979512, 29.692540016416029 ], [ -81.989964199093563, 29.692539846493808 ], [ -81.989964402558499, 29.692560600955819 ], [ -81.989941665439787, 29.692560770878199 ] ] ] } },
{ "type": "Feature", "properties": { "xmin": 404221.95, "ymin": 3285115.25, "xmax": 404223.05, "ymax": 3285117.85, "label": "Tree", "score": 0.33658617734909058, "image_path": "OSBS_029.tif" }, "geometry": { "type": "Polygon", "coordinates": [ [ [ -81.989981997160257, 29.692457591983278 ], [ -81.98998176715331, 29.692434130417269 ], [ -81.989993135698299, 29.692434045453464 ], [ -81.989993365707889, 29.692457507019384 ], [ -81.989981997160257, 29.692457591983278 ] ] ] } },
{ "type": "Feature", "properties": { "xmin": 404215.85, "ymin": 3285118.55, "xmax": 404217.45, "ymax": 3285120.25, "label": "Tree", "score": 0.33348801732063293, "image_path": "OSBS_029.tif" }, "geometry": { "type": "Polygon", "coordinates": [ [ [ -81.990040085729007, 29.692478816259374 ], [ -81.990039935330856, 29.69246347600501 ], [ -81.990056471400806, 29.692463352413586 ], [ -81.990056621801443, 29.692478692667876 ], [ -81.990040085729007, 29.692478816259374 ] ] ] } },
{ "type": "Feature", "properties": { "xmin": 404216.75, "ymin": 3285125.35, "xmax": 404218.35, "ymax": 3285126.85, "label": "Tree", "score": 0.3302028477191925, "image_path": "OSBS_029.tif" }, "geometry": { "type": "Polygon", "coordinates": [ [ [ -81.990031368082498, 29.692538442060169 ], [ -81.990031235379092, 29.692524906541692 ], [ -81.990047771459146, 29.692524782951132 ], [ -81.990047904164754, 29.692538318469534 ], [ -81.990031368082498, 29.692538442060169 ] ] ] } },
{ "type": "Feature", "properties": { "xmin": 404221.05, "ymin": 3285123.25, "xmax": 404223.25, "ymax": 3285125.55, "label": "Tree", "score": 0.31756341457366943, "image_path": "OSBS_029.tif" }, "geometry": { "type": "Polygon", "coordinates": [ [ [ -81.989980611326203, 29.692527089760784 ], [ -81.989980407858212, 29.692506335298766 ], [ -81.990003144964419, 29.69250616537003 ], [ -81.990003348437085, 29.692526919831909 ], [ -81.989980611326203, 29.692527089760784 ] ] ] } },
{ "type": "Feature", "properties": { "xmin": 404246.65, "ymin": 3285102.95, "xmax": 404248.85, "ymax": 3285104.05, "label": "Tree", "score": 0.31716307997703552, "image_path": "OSBS_029.tif" }, "geometry": { "type": "Polygon", "coordinates": [ [ [ -81.989714132554752, 29.69233505770864 ], [ -81.989714035270907, 29.692325131660496 ], [ -81.989736772338134, 29.692324961778414 ], [ -81.989736869624238, 29.692334887826487 ], [ -81.989714132554752, 29.69233505770864 ] ] ] } },
{ "type": "Feature", "properties": { "xmin": 404243.85, "ymin": 3285141.75, "xmax": 404246.85, "ymax": 3285142.85, "label": "Tree", "score": 0.30844056606292725, "image_path": "OSBS_029.tif" }, "geometry": { "type": "Polygon", "coordinates": [ [ [ -81.989738234187641, 29.692685022047293 ], [ -81.989738136900058, 29.692675095999753 ], [ -81.989769142098908, 29.692674864333284 ], [ -81.98976923938956, 29.692684790380731 ], [ -81.989738234187641, 29.692685022047293 ] ] ] } },
{ "type": "Feature", "properties": { "xmin": 404250.65, "ymin": 3285122.85, "xmax": 404251.95, "ymax": 3285125.45, "label": "Tree", "score": 0.29950761795043945, "image_path": "OSBS_029.tif" }, "geometry": { "type": "Polygon", "coordinates": [ [ [ -81.989683986518187, 29.692528403834842 ], [ -81.989683756579808, 29.692504942266979 ], [ -81.989697192143609, 29.692504841885103 ], [ -81.989697422085115, 29.692528303452882 ], [ -81.989683986518187, 29.692528403834842 ] ] ] } },
{ "type": "Feature", "properties": { "xmin": 404219.35, "ymin": 3285124.35, "xmax": 404221.15, "ymax": 3285126.35, "label": "Tree", "score": 0.29819449782371521, "image_path": "OSBS_029.tif" }, "geometry": { "type": "Polygon", "coordinates": [ [ [ -81.990002385705111, 29.69253414649928 ], [ -81.990002208772466, 29.692516099141145 ], [ -81.990020811861058, 29.69251596010572 ], [ -81.990020988797028, 29.692534007463763 ], [ -81.990002385705111, 29.69253414649928 ] ] ] } },
{ "type": "Feature", "properties": { "xmin": 404229.15, "ymin": 3285114.15, "xmax": 404231.35, "ymax": 3285116.55, "label": "Tree", "score": 0.29514917731285095, "image_path": "OSBS_029.tif" }, "geometry": { "type": "Polygon", "coordinates": [ [ [ -81.989896101305732, 29.692446502259724 ], [ -81.989895889010128, 29.692424845428967 ], [ -81.989918626098557, 29.692424675515156 ], [ -81.989918838399049, 29.692446332345757 ], [ -81.989896101305732, 29.692446502259724 ] ] ] } },
{ "type": "Feature", "properties": { "xmin": 404211.95, "ymin": 3285104.15, "xmax": 404213.05, "ymax": 3285107.15, "label": "Tree", "score": 0.29448610544204712, "image_path": "OSBS_029.tif" }, "geometry": { "type": "Polygon", "coordinates": [ [ [ -81.990084400927387, 29.692360266183073 ], [ -81.990084135508368, 29.692333195145824 ], [ -81.990095504041648, 29.692333110173486 ], [ -81.990095769463707, 29.692360181210649 ], [ -81.990084400927387, 29.692360266183073 ] ] ] } },
{ "type": "Feature", "properties": { "xmin": 404249.45, "ymin": 3285131.65, "xmax": 404251.75, "ymax": 3285132.85, "label": "Tree", "score": 0.28592786192893982, "image_path": "OSBS_029.tif" }, "geometry": { "type": "Polygon", "coordinates": [ [ [ -81.989686707971359, 29.692595163622681 ], [ -81.989686601845335, 29.692584335206863 ], [ -81.989710372476836, 29.692584157606298 ], [ -81.989710478605403, 29.692594986022034 ], [ -81.989686707971359, 29.692595163622681 ] ] ] } },
{ "type": "Feature", "properties": { "xmin": 404222.75, "ymin": 3285132.35, "xmax": 404223.95, "ymax": 3285132.85, "label": "Tree", "score": 0.28540158271789551, "image_path": "OSBS_029.tif" }, "geometry": { "type": "Polygon", "coordinates": [ [ [ -81.989974022577286, 29.69259301668567 ], [ -81.989973978345276, 29.692588504846146 ], [ -81.989986380413342, 29.692588412158592 ], [ -81.989986424645906, 29.692592923998109 ], [ -81.989974022577286, 29.69259301668567 ] ] ] } },
{ "type": "Feature", "properties": { "xmin": 404218.55, "ymin": 3285102.85, "xmax": 404220.25, "ymax": 3285103.55, "label": "Tree", "score": 0.27927550673484802, "image_path": "OSBS_029.tif" }, "geometry": { "type": "Polygon", "coordinates": [ [ [ -81.990009670209574, 29.692328337096697 ], [ -81.990009608283188, 29.692322020521175 ], [ -81.990027177833056, 29.692321889209811 ], [ -81.990027239760536, 29.692328205785294 ], [ -81.990009670209574, 29.692328337096697 ] ] ] } },
{ "type": "Feature", "properties": { "xmin": 404238.45, "ymin": 3285129.15, "xmax": 404239.95, "ymax": 3285130.75, "label": "Tree", "score": 0.27712377905845642, "image_path": "OSBS_029.tif" }, "geometry": { "type": "Polygon", "coordinates": [ [ [ -81.989808475913435, 29.692575302681984 ], [ -81.989808334394795, 29.692560864794718 ], [ -81.989823836976399, 29.692560748954588 ], [ -81.989823978497256, 29.692575186841783 ], [ -81.989808475913435, 29.692575302681984 ] ] ] } },
{ "type": "Feature", "properties": { "xmin": 404238.75, "ymin": 3285110.05, "xmax": 404240.15, "ymax": 3285111.55, "label": "Tree", "score": 0.2745775580406189, "image_path": "OSBS_029.tif" }, "geometry": { "type": "Polygon", "coordinates": [ [ [ -81.989804710688915, 29.692402063477822 ], [ -81.989804578016617, 29.692388527958148 ], [ -81.98981904706811, 29.692388419841716 ], [ -81.989819179742355, 29.692401955361341 ], [ -81.989804710688915, 29.692402063477822 ] ] ] } },
{ "type": "Feature", "properties": { "xmin": 404238.65, "ymin": 3285124.55, "xmax": 404239.65, "ymax": 3285125.65, "label": "Tree", "score": 0.27456843852996826, "image_path": "OSBS_029.tif" }, "geometry": { "type": "Polygon", "coordinates": [ [ [ -81.989811125338491, 29.692529258748369 ], [ -81.989811028044329, 29.692519332700819 ], [ -81.989821363094492, 29.692519255474146 ], [ -81.989821460389663, 29.692529181521671 ], [ -81.989811125338491, 29.692529258748369 ] ] ] } },
{ "type": "Feature", "properties": { "xmin": 404220.55, "ymin": 3285135.45, "xmax": 404221.95, "ymax": 3285136.95, "label": "Tree", "score": 0.2741219699382782, "image_path": "OSBS_029.tif" }, "geometry": { "type": "Polygon", "coordinates": [ [ [ -81.98999505540209, 29.692629859289521 ], [ -81.989994922703062, 29.692616323771087 ], [ -81.990009391786359, 29.692616215633119 ], [ -81.99000952448732, 29.692629751151497 ], [ -81.98999505540209, 29.692629859289521 ] ] ] } },
{ "type": "Feature", "properties": { "xmin": 404250.55, "ymin": 3285132.45, "xmax": 404251.95, "ymax": 3285135.15, "label": "Tree", "score": 0.27062949538230896, "image_path": "OSBS_029.tif" }, "geometry": { "type": "Polygon", "coordinates": [ [ [ -81.98968484436763, 29.692615933529613 ], [ -81.989684605584415, 29.692591569594065 ], [ -81.989699074665523, 29.692591461490075 ], [ -81.989699313452235, 29.692615825425509 ], [ -81.98968484436763, 29.692615933529613 ] ] ] } },
{ "type": "Feature", "properties": { "xmin": 404251.25, "ymin": 3285105.35, "xmax": 404251.95, "ymax": 3285107.65, "label": "Tree", "score": 0.27018353343009949, "image_path": "OSBS_029.tif" }, "geometry": { "type": "Polygon", "coordinates": [ [ [ -81.989682412330097, 29.692367782330056 ], [ -81.989682208924705, 29.692347027865665 ], [ -81.989689443447759, 29.692346973814395 ], [ -81.989689646854643, 29.692367728278743 ], [ -81.989682412330097, 29.692367782330056 ] ] ] } },
{ "type": "Feature", "properties": { "xmin": 404211.95, "ymin": 3285141.05, "xmax": 404213.55, "ymax": 3285142.85, "label": "Tree", "score": 0.26942506432533264, "image_path": "OSBS_029.tif" }, "geometry": { "type": "Polygon", "coordinates": [ [ [ -81.990082391908473, 29.692682450141842 ], [ -81.990082232655269, 29.692666207520269 ], [ -81.990098768758187, 29.692666083922809 ], [ -81.990098928014064, 29.692682326544297 ], [ -81.990082391908473, 29.692682450141842 ] ] ] } },
{ "type": "Feature", "properties": { "xmin": 404242.45, "ymin": 3285105.65, "xmax": 404244.05, "ymax": 3285107.25, "label": "Tree", "score": 0.26165220141410828, "image_path": "OSBS_029.tif" }, "geometry": { "type": "Polygon", "coordinates": [ [ [ -81.989764023728128, 29.692363562827513 ], [ -81.989763882217048, 29.692349124939589 ], [ -81.98978041826966, 29.69234900138305 ], [ -81.989780559783085, 29.692363439270913 ], [ -81.989764023728128, 29.692363562827513 ] ] ] } },
{ "type": "Feature", "properties": { "xmin": 404239.45, "ymin": 3285134.45, "xmax": 404240.85, "ymax": 3285136.15, "label": "Tree", "score": 0.26160553097724915, "image_path": "OSBS_029.tif" }, "geometry": { "type": "Polygon", "coordinates": [ [ [ -81.989799651984782, 29.692624100054637 ], [ -81.989799501622272, 29.692608759799487 ], [ -81.989813970705342, 29.692608651682892 ], [ -81.98981412107004, 29.692623991937971 ], [ -81.989799651984782, 29.692624100054637 ] ] ] } },
{ "type": "Feature", "properties": { "xmin": 404243.65, "ymin": 3285132.05, "xmax": 404245.35, "ymax": 3285134.05, "label": "Tree", "score": 0.23667038977146149, "image_path": "OSBS_029.tif" }, "geometry": { "type": "Polygon", "coordinates": [ [ [ -81.989752958476984, 29.692605497834567 ], [ -81.989752781588408, 29.692587450475273 ], [ -81.989770351185811, 29.692587319196903 ], [ -81.989770528077528, 29.692605366556116 ], [ -81.989752958476984, 29.692605497834567 ] ] ] } },
{ "type": "Feature", "properties": { "xmin": 404212.25, "ymin": 3285137.25, "xmax": 404216.15, "ymax": 3285141.55, "label": "Tree", "score": 0.10778871923685074, "image_path": "OSBS_029.tif" }, "geometry": { "type": "Polygon", "coordinates": [ [ [ -81.990055405723581, 29.69267092020111 ], [ -81.99005502529613, 29.692632118382484 ], [ -81.990095332033547, 29.692631817118645 ], [ -81.990095712476489, 29.692670618936795 ], [ -81.990055405723581, 29.69267092020111 ] ] ] } },
{ "type": "Feature", "properties": { "xmin": 404229.65, "ymin": 3285133.35, "xmax": 404234.05, "ymax": 3285137.55, "label": "Tree", "score": 0.10473524779081345, "image_path": "OSBS_029.tif" }, "geometry": { "type": "Polygon", "coordinates": [ [ [ -81.989870054235027, 29.692636208052761 ], [ -81.989869682724802, 29.692598308599688 ], [ -81.989915156979933, 29.692597968775367 ], [ -81.98991552850724, 29.692635868227917 ], [ -81.989870054235027, 29.692636208052761 ] ] ] } }
]
}
